{
  "links" : {
    "next" : "https://api.nasa.gov/neo/rest/v1/feed?start_date=2013-01-23&end_date=2013-01-23&detailed=true&api_key=t0TVs3DtDT2H8Oy2Zy8m2eVrNsAVKAexjcZXUckd",
    "prev" : "https://api.nasa.gov/neo/rest/v1/feed?start_date=2013-01-21&end_date=2013-01-21&detailed=true&api_key=t0TVs3DtDT2H8Oy2Zy8m2eVrNsAVKAexjcZXUckd",
    "self" : "https://api.nasa.gov/neo/rest/v1/feed?start_date=2013-01-22&end_date=2013-01-22&detailed=true&api_key=t0TVs3DtDT2H8Oy2Zy8m2eVrNsAVKAexjcZXUckd"
  },
  "element_count" : 6,
  "near_earth_objects" : {
    "2013-01-22" : [ {
      "links" : {
        "self" : "https://api.nasa.gov/neo/rest/v1/neo/3623579?api_key=t0TVs3DtDT2H8Oy2Zy8m2eVrNsAVKAexjcZXUckd"
      },
      "neo_reference_id" : "3623579",
      "name" : "(2013 AR27)",
      "nasa_jpl_url" : "http://ssd.jpl.nasa.gov/sbdb.cgi?sstr=3623579",
      "absolute_magnitude_h" : 21.8,
      "estimated_diameter" : {
        "kilometers" : {
          "estimated_diameter_min" : 0.1160259082,
          "estimated_diameter_max" : 0.2594418179
        },
        "meters" : {
          "estimated_diameter_min" : 116.0259082094,
          "estimated_diameter_max" : 259.4418179074
        },
        "miles" : {
          "estimated_diameter_min" : 0.0720951346,
          "estimated_diameter_max" : 0.1612096218
        },
        "feet" : {
          "estimated_diameter_min" : 380.6624406898,
          "estimated_diameter_max" : 851.1870938635
        }
      },
      "is_potentially_hazardous_asteroid" : false,
      "close_approach_data" : [ {
        "close_approach_date" : "2013-01-22",
        "epoch_date_close_approach" : 1358841600000,
        "relative_velocity" : {
          "kilometers_per_second" : "14.3302685289",
          "kilometers_per_hour" : "51588.9667039475",
          "miles_per_hour" : "32055.3776722389"
        },
        "miss_distance" : {
          "astronomical" : "0.2179232767",
          "lunar" : "84.7721557617",
          "kilometers" : "32600860",
          "miles" : "20257234"
        },
        "orbiting_body" : "Earth"
      } ],
      "orbital_data" : {
        "orbit_id" : "7",
        "orbit_determination_date" : "2017-04-06 08:47:23",
        "orbit_uncertainty" : "8",
        "minimum_orbit_intersection" : ".203005",
        "jupiter_tisserand_invariant" : "4.050",
        "epoch_osculation" : "2456300.5",
        "eccentricity" : ".4516432187989273",
        "semi_major_axis" : "1.668127813824638",
        "inclination" : "22.97042073323421",
        "ascending_node_longitude" : "101.4861438093816",
        "orbital_period" : "786.9414341226928",
        "perihelion_distance" : ".9147291986208608",
        "perihelion_argument" : "87.29058552169164",
        "aphelion_distance" : "2.421526429028415",
        "perihelion_time" : "2456374.501389955843",
        "mean_anomaly" : "326.1467814135328",
        "mean_motion" : ".4574673341496364",
        "equinox" : "J2000"
      }
    }, {
      "links" : {
        "self" : "https://api.nasa.gov/neo/rest/v1/neo/3728934?api_key=t0TVs3DtDT2H8Oy2Zy8m2eVrNsAVKAexjcZXUckd"
      },
      "neo_reference_id" : "3728934",
      "name" : "(2015 TL20)",
      "nasa_jpl_url" : "http://ssd.jpl.nasa.gov/sbdb.cgi?sstr=3728934",
      "absolute_magnitude_h" : 23.9,
      "estimated_diameter" : {
        "kilometers" : {
          "estimated_diameter_min" : 0.04411182,
          "estimated_diameter_max" : 0.0986370281
        },
        "meters" : {
          "estimated_diameter_min" : 44.1118199997,
          "estimated_diameter_max" : 98.6370281305
        },
        "miles" : {
          "estimated_diameter_min" : 0.0274098057,
          "estimated_diameter_max" : 0.0612901888
        },
        "feet" : {
          "estimated_diameter_min" : 144.7238235278,
          "estimated_diameter_max" : 323.6123073718
        }
      },
      "is_potentially_hazardous_asteroid" : false,
      "close_approach_data" : [ {
        "close_approach_date" : "2013-01-22",
        "epoch_date_close_approach" : 1358841600000,
        "relative_velocity" : {
          "kilometers_per_second" : "18.7262188199",
          "kilometers_per_hour" : "67414.387751658",
          "miles_per_hour" : "41888.6788782455"
        },
        "miss_distance" : {
          "astronomical" : "0.3307220826",
          "lunar" : "128.650894165",
          "kilometers" : "49475320",
          "miles" : "30742540"
        },
        "orbiting_body" : "Earth"
      } ],
      "orbital_data" : {
        "orbit_id" : "9",
        "orbit_determination_date" : "2017-04-06 08:31:36",
        "orbit_uncertainty" : "7",
        "minimum_orbit_intersection" : ".0571722",
        "jupiter_tisserand_invariant" : "3.603",
        "epoch_osculation" : "2458000.5",
        "eccentricity" : ".534521863799906",
        "semi_major_axis" : "2.041207641391853",
        "inclination" : "5.494333132110476",
        "ascending_node_longitude" : "174.1313378187944",
        "orbital_period" : "1065.195210625698",
        "perihelion_distance" : ".9501375285124694",
        "perihelion_argument" : "249.0815930561494",
        "aphelion_distance" : "3.132277754271236",
        "perihelion_time" : "2458412.716451262751",
        "mean_anomaly" : "220.6847637181722",
        "mean_motion" : ".3379662210352365",
        "equinox" : "J2000"
      }
    }, {
      "links" : {
        "self" : "https://api.nasa.gov/neo/rest/v1/neo/2229672?api_key=t0TVs3DtDT2H8Oy2Zy8m2eVrNsAVKAexjcZXUckd"
      },
      "neo_reference_id" : "2229672",
      "name" : "229672 (2006 WR1)",
      "nasa_jpl_url" : "http://ssd.jpl.nasa.gov/sbdb.cgi?sstr=2229672",
      "absolute_magnitude_h" : 17.9,
      "estimated_diameter" : {
        "kilometers" : {
          "estimated_diameter_min" : 0.6991252322,
          "estimated_diameter_max" : 1.5632915441
        },
        "meters" : {
          "estimated_diameter_min" : 699.1252322458,
          "estimated_diameter_max" : 1563.2915440869
        },
        "miles" : {
          "estimated_diameter_min" : 0.4344161447,
          "estimated_diameter_max" : 0.97138403
        },
        "feet" : {
          "estimated_diameter_min" : 2293.7180269613,
          "estimated_diameter_max" : 5128.9094295021
        }
      },
      "is_potentially_hazardous_asteroid" : false,
      "close_approach_data" : [ {
        "close_approach_date" : "2013-01-22",
        "epoch_date_close_approach" : 1358841600000,
        "relative_velocity" : {
          "kilometers_per_second" : "23.8419759362",
          "kilometers_per_hour" : "85831.1133702268",
          "miles_per_hour" : "53332.1159716278"
        },
        "miss_distance" : {
          "astronomical" : "0.2558906864",
          "lunar" : "99.5414810181",
          "kilometers" : "38280704",
          "miles" : "23786526"
        },
        "orbiting_body" : "Earth"
      } ],
      "orbital_data" : {
        "orbit_id" : "56",
        "orbit_determination_date" : "2017-04-06 09:25:10",
        "orbit_uncertainty" : "0",
        "minimum_orbit_intersection" : ".23636",
        "jupiter_tisserand_invariant" : "4.532",
        "epoch_osculation" : "2458000.5",
        "eccentricity" : ".613918886143094",
        "semi_major_axis" : "1.333001439084492",
        "inclination" : "38.18221134640423",
        "ascending_node_longitude" : "106.0082368204795",
        "orbital_period" : "562.1398251848053",
        "perihelion_distance" : ".5146466803745992",
        "perihelion_argument" : "132.0838134916719",
        "aphelion_distance" : "2.151356197794384",
        "perihelion_time" : "2458068.832903899124",
        "mean_anomaly" : "316.238920813701",
        "mean_motion" : ".640410061467623",
        "equinox" : "J2000"
      }
    } ]
  }
}